BEIDOU 3 (C01)          
1 36287U 10001A   22280.57022856 -.00000296  00000+0  00000+0 0  9993
2 36287   1.7044  47.9078 0000436 356.1008 317.9469  1.00271362 46635
BEIDOU 5 (C06)          
1 36828U 10036A   22280.62436559 -.00000147  00000+0  00000+0 0  9992
2 36828  54.1982 175.2046 0030267 187.2504 346.2780  1.00266407 44709
BEIDOU 6 (C04)          
1 37210U 10057A   22280.64162483 -.00000129  00000+0  00000+0 0  9995
2 37210   0.7566  40.0994 0007338 148.9776 218.1443  1.00272395 43760
BEIDOU 7 (C07)          
1 37256U 10068A   22279.72192162 -.00000182  00000+0  00000+0 0  9990
2 37256  50.0170 288.3126 0023934 205.8256 249.2660  1.00272014 43268
BEIDOU 8 (C08)          
1 37384U 11013A   22279.84181484 -.00000179  00000+0  00000+0 0  9997
2 37384  60.4557  53.1596 0024545 178.7808 195.0071  1.00278189 42142
BEIDOU 9 (C09)          
1 37763U 11038A   22280.60550295 -.00000097  00000+0  00000+0 0  9990
2 37763  54.4790 177.7091 0098979 227.6932 282.3219  1.00258204 41129
BEIDOU 10 (C10)         
1 37948U 11073A   22280.48555110 -.00000140  00000+0  00000+0 0  9990
2 37948  50.1323 287.9511 0086752 220.0987 138.6953  1.00268734 39879
BEIDOU 11 (C05)         
1 38091U 12008A   22280.64863457  .00000041  00000+0  00000+0 0  9992
2 38091   1.8123  69.9350 0009882 339.8635 258.6644  1.00271886 38957
BEIDOU 12 (C11)         
1 38250U 12018A   22280.36367287 -.00000096  00000+0  00000+0 0  9990
2 38250  56.6591 349.8644 0023716 250.9490 110.6118  1.86234418 71179
BEIDOU 13 (C12)         
1 38251U 12018B   22279.97098477 -.00000095  00000+0  00000+0 0  9997
2 38251  56.5746 349.1939 0014335 250.7962 251.6362  1.86234212 71168
BEIDOU 15 (C14)         
1 38775U 12050B   22280.27757677  .00000058  00000+0  00000+0 0  9991
2 38775  55.4653 107.9216 0011742 334.0171 209.8172  1.86231443 68544
BEIDOU 16 (C02)         
1 38953U 12059A   22280.65559608 -.00000191  00000+0  00000+0 0  9993
2 38953   1.1969  81.3192 0023845 295.5294 319.5241  1.00268352 36526
BEIDOU 17 (C31)         
1 40549U 15019A   22280.56146684 -.00000159  00000+0  00000+0 0  9996
2 40549  51.6927 311.4522 0038616 198.5320 164.1599  1.00273132 27568
BEIDOU 18 (C57)         
1 40748U 15037A   22280.39993139 -.00000095  00000+0  00000+0 0  9992
2 40748  55.8240 347.9789 0000912  16.8290 322.4953  1.86233469 48994
BEIDOU 19 (C58)         
1 40749U 15037B   22279.85726640 -.00000094  00000+0  00000+0 0  9992
2 40749  55.8274 347.9869 0003493 294.5584 175.1091  1.86233095 48989
BEIDOU 20 (C18)         
1 40938U 15053A   22280.45133076 -.00000129  00000+0  00000+0 0  9992
2 40938  51.3303 274.5817 0045992 200.3137 159.8625  1.00267067 25833
BEIDOU IGSO-6 (C13)     
1 41434U 16021A   22279.88024450 -.00000146  00000+0  00000+0 0  9999
2 41434  58.2653  51.6835 0045727 215.1969 159.7162  1.00261673 23959
BEIDOU-2 G7 (C03)       
1 41586U 16037A   22280.52868115 -.00000370  00000+0  00000+0 0  9990
2 41586   1.6212  68.3059 0007705 354.0245 254.7240  1.00269931 23269
BEIDOU-3 M1 (C19)       
1 43001U 17069A   22280.46589130  .00000058  00000+0  00000+0 0  9992
2 43001  55.6191 107.9299 0007407 294.8111 171.6455  1.86231757 33485
BEIDOU-3 M2 (C20)       
1 43002U 17069B   22280.51878006  .00000057  00000+0  00000+0 0  9991
2 43002  55.6180 107.9644 0006018 326.8909 217.8865  1.86231352 33474
BEIDOU-3 M3 (C27)       
1 43107U 18003A   22280.53321604 -.00000098  00000+0  00000+0 0  9991
2 43107  55.2759 348.8416 0003657  70.6788 290.0773  1.86232574 32248
BEIDOU-3 M4 (C28)       
1 43108U 18003B   22280.40558880 -.00000098  00000+0  00000+0 0  9996
2 43108  55.2691 348.8347 0003845 240.0548  78.3843  1.86230744 32234
BEIDOU-3 M5 (C21)       
1 43207U 18018A   22279.83806475  .00000060  00000+0  00000+0 0  9991
2 43207  55.5770 108.0619 0004530   7.7530 352.3214  1.86231664 31614
BEIDOU-3 M6 (C22)       
1 43208U 18018B   22279.90475459  .00000059  00000+0  00000+0 0  9992
2 43208  55.5777 108.0646 0005396 311.3723  48.6504  1.86231646 31618
BEIDOU-3 M7 (C29)       
1 43245U 18029A   22280.13174557 -.00000094  00000+0  00000+0 0  9997
2 43245  55.1851 346.6168 0001161 213.4191 148.6788  1.86232480 30772
BEIDOU-3 M8 (C30)       
1 43246U 18029B   22280.09912756 -.00000094  00000+0  10000-3 0  9999
2 43246  55.1818 346.6469 0002900 351.5743  35.2900  1.86233005 30769
BEIDOU IGSO-7 (C16)     
1 43539U 18057A   22280.46546027 -.00000156  00000+0  00000+0 0  9994
2 43539  55.0906 174.7412 0051937 227.4992 255.9588  1.00276560 15631
BEIDOU-3 M9 (C23)       
1 43581U 18062A   22280.54353693 -.00000037  00000+0  00000+0 0  9999
2 43581  54.2490 228.2486 0005530 280.9435 255.1839  1.86231991 28512
BEIDOU-3 M10 (C24)      
1 43582U 18062B   22280.41949159 -.00000037  00000+0  00000+0 0  9994
2 43582  54.2488 228.2416 0005318 346.9955 197.8863  1.86232461 28519
BEIDOU-3 M11 (C25)      
1 43602U 18067A   22279.81646679 -.00000035  00000+0  00000+0 0  9993
2 43602  54.3324 226.8875 0007116   3.6803 178.0417  1.86231613 27997
BEIDOU-3 M12 (C26)      
1 43603U 18067B   22280.48706788 -.00000037  00000+0  00000+0 0  9999
2 43603  54.3287 226.8309 0004463 348.4145 193.2690  1.86231546 28021
BEIDOU-3 M13 (C32)      
1 43622U 18072A   22280.44563339  .00000057  00000+0  00000+0 0  9996
2 43622  55.5445 107.5931 0004342 289.9634 252.9393  1.86231798 27532
BEIDOU-3 M14 (C33)      
1 43623U 18072B   22280.34748469  .00000058  00000+0  00000+0 0  9996
2 43623  55.5465 107.5878 0002791 340.2997 227.0407  1.86231844 27535
BEIDOU-3 M15 (C34)      
1 43647U 18078A   22280.20951759 -.00000095  00000+0  10000-3 0  9998
2 43647  55.0804 346.7632 0005162   0.3972  10.1122  1.86232640 27046
BEIDOU-3 M16 (C35)      
1 43648U 18078B   22280.33169183 -.00000095  00000+0  00000+0 0  9990
2 43648  55.0760 346.7642 0002934  16.3521 343.6445  1.86232322 27050
BEIDOU-3 G1 (C59)       
1 43683U 18085A   22280.56898297 -.00000296  00000+0  00000+0 0  9990
2 43683   1.0209 149.1063 0004512  53.0009 158.8478  1.00265508 14532
BEIDOU-3 M17 (C36)      
1 43706U 18093A   22279.94522194 -.00000035  00000+0  00000+0 0  9996
2 43706  54.3304 228.1626 0010182 279.9723  79.8787  1.86231824 26413
BEIDOU-3 M18 (C37)      
1 43707U 18093B   22280.61362444 -.00000037  00000+0  00000+0 0  9995
2 43707  54.3320 228.1300 0009179 301.7016 237.6152  1.86232325 26411
BEIDOU-3 IGSO-1 (C38)   
1 44204U 19023A   22279.79648729 -.00000211  00000+0  00000+0 0  9996
2 44204  56.7255  51.7794 0023856 189.0813 181.0805  1.00276248 12830
BEIDOU-2 G8             
1 44231U 19027A   22280.63576985 -.00000264  00000+0  00000+0 0  9997
2 44231   1.1292  79.2747 0006425 120.3728 190.0120  1.00268893 12549
BEIDOU-3 IGSO-2 (C39)   
1 44337U 19035A   22280.60396549 -.00000150  00000+0  00000+0 0  9990
2 44337  55.1248 170.7269 0025543 190.8495 351.8008  1.00270206 12179
BEIDOU-3 M23 (C45)      
1 44542U 19061A   22279.88151465 -.00000034  00000+0  00000+0 0  9992
2 44542  54.5573 228.3289 0008884 336.1599  23.7649  1.86231447 20669
BEIDOU-3 M24 (C46)      
1 44543U 19061B   22279.97525906 -.00000035  00000+0  00000+0 0  9999
2 44543  54.5557 228.2947 0006480 319.4292  14.8009  1.86231879 20655
BEIDOU-3 IGSO-3         
1 44709U 19073A   22280.61317193 -.00000158  00000+0  10000-3 0  9997
2 44709  57.0825 295.2191 0027410 182.9202 238.9921  1.00274955 10929
BEIDOU-3 M21            
1 44793U 19078A   22280.26498355 -.00000095  00000+0  10000-3 0  9996
2 44793  54.9291 346.7682 0004974  13.3750 348.0503  1.86232394 19537
BEIDOU-3 M22            
1 44794U 19078B   22280.39901052 -.00000095  00000+0  00000+0 0  9999
2 44794  54.9029 346.7538 0002873   2.9890   0.1495  1.86232822 19534
BEIDOU-3 M19            
1 44864U 19090A   22280.35961315  .00000057  00000+0  00000+0 0  9992
2 44864  55.4807 107.8013 0014820 268.9212 262.1753  1.86231749 19111
BEIDOU-3 M20            
1 44865U 19090B   22280.29202653  .00000058  00000+0  00000+0 0  9990
2 44865  55.4821 107.8346 0013038 285.9207 289.7175  1.86231937 19088
BEIDOU-3 G2             
1 45344U 20017A   22280.51485975 -.00000160  00000+0  00000+0 0  9994
2 45344   2.0128 357.8083 0003966 162.8659 120.8498  1.00270445  9734
BEIDOU-3 G3             
1 45807U 20040A   22280.52858877 -.00000373  00000+0  00000+0 0  9996
2 45807   1.1970 307.1512 0008712 334.6461  35.2234  1.00269887  8556
